{
  "type": "FeatureCollection",
  "features": [
    {
      "type": "Feature",
      "properties": {
        "norad_id": 38755,
        "name": "SPOT 6",
        "group": "resource",
        "lat": -63.03086920767368,
        "lon": 77.91451691567117,
        "alt_km": 705.7869039815923,
        "timestamp": "2025-12-22T22:44:20.607652+00:00",
        "meta_object_name": "SPOT 6",
        "meta_object_id": "2012-047A",
        "meta_epoch": "2025-12-22T14:48:02.632896",
        "meta_mean_motion": 14.58540425,
        "meta_eccentricity": 0.00013124,
        "meta_inclination": 98.1563,
        "meta_ra_of_asc_node": 61.2193,
        "meta_arg_of_pericenter": 76.7509,
        "meta_mean_anomaly": 283.3836,
        "meta_ephemeris_type": 0,
        "meta_classification_type": "U",
        "meta_norad_cat_id": 38755,
        "meta_element_set_no": 999,
        "meta_rev_at_epoch": 70731,
        "meta_bstar": 9.1636253e-05,
        "meta_mean_motion_dot": 3.81e-06,
        "meta_mean_motion_ddot": 0,
        "tle_line1": "1 38755U 12047A   25356.61669714  .00000381  00000+0  91636-4 0  9993",
        "tle_line2": "2 38755  98.1563  61.2193 0001312  76.7509 283.3836 14.58540425707314"
      },
      "geometry": {
        "type": "Point",
        "coordinates": [
          77.91451691567117,
          -63.03086920767368
        ]
      }
    },
    {
      "type": "Feature",
      "properties": {
        "norad_id": 39019,
        "name": "PLEIADES 1B",
        "group": "resource",
        "lat": -14.093026096491155,
        "lon": -112.63088765569796,
        "alt_km": 702.7427907042802,
        "timestamp": "2025-12-22T22:44:20.607662+00:00",
        "meta_object_name": "PLEIADES 1B",
        "meta_object_id": "2012-068A",
        "meta_epoch": "2025-12-22T15:15:58.290048",
        "meta_mean_motion": 14.58561349,
        "meta_eccentricity": 0.00011764,
        "meta_inclination": 98.1788,
        "meta_ra_of_asc_node": 69.1319,
        "meta_arg_of_pericenter": 84.0213,
        "meta_mean_anomaly": 276.112,
        "meta_ephemeris_type": 0,
        "meta_classification_type": "U",
        "meta_norad_cat_id": 39019,
        "meta_element_set_no": 999,
        "meta_rev_at_epoch": 69511,
        "meta_bstar": 0.0001028315,
        "meta_mean_motion_dot": 4.33e-06,
        "meta_mean_motion_ddot": 0,
        "tle_line1": "1 39019U 12068A   25356.63609132  .00000433  00000+0  10283-3 0  9996",
        "tle_line2": "2 39019  98.1788  69.1319 0001176  84.0213 276.1120 14.58561349695114"
      },
      "geometry": {
        "type": "Point",
        "coordinates": [
          -112.63088765569796,
          -14.093026096491155
        ]
      }
    },
    {
      "type": "Feature",
      "properties": {
        "norad_id": 39030,
        "name": "GOKTURK 2",
        "group": "resource",
        "lat": -55.93872927865684,
        "lon": -150.37514586045373,
        "alt_km": 652.1682767956809,
        "timestamp": "2025-12-22T22:44:20.607672+00:00",
        "meta_object_name": "GOKTURK 2",
        "meta_object_id": "2012-073A",
        "meta_epoch": "2025-12-22T13:13:44.835168",
        "meta_mean_motion": 14.7530404,
        "meta_eccentricity": 0.00013526,
        "meta_inclination": 97.6884,
        "meta_ra_of_asc_node": 197.722,
        "meta_arg_of_pericenter": 108.124,
        "meta_mean_anomaly": 252.0118,
        "meta_ephemeris_type": 0,
        "meta_classification_type": "U",
        "meta_norad_cat_id": 39030,
        "meta_element_set_no": 999,
        "meta_rev_at_epoch": 69846,
        "meta_bstar": 9.3181315e-05,
        "meta_mean_motion_dot": 5.84e-06,
        "meta_mean_motion_ddot": 0,
        "tle_line1": "1 39030U 12073A   25356.55121337  .00000584  00000+0  93181-4 0  9998",
        "tle_line2": "2 39030  97.6884 197.7220 0001352 108.1240 252.0118 14.75304040698464"
      },
      "geometry": {
        "type": "Point",
        "coordinates": [
          -150.37514586045373,
          -55.93872927865684
        ]
      }
    },
    {
      "type": "Feature",
      "properties": {
        "norad_id": 39084,
        "name": "LANDSAT 8",
        "group": "resource",
        "lat": -48.25838663169917,
        "lon": 74.1766007729718,
        "alt_km": 709.9215369663343,
        "timestamp": "2025-12-22T22:44:20.607683+00:00",
        "meta_object_name": "LANDSAT 8",
        "meta_object_id": "2013-008A",
        "meta_epoch": "2025-12-22T11:25:36.296256",
        "meta_mean_motion": 14.57112059,
        "meta_eccentricity": 0.00010673,
        "meta_inclination": 98.2059,
        "meta_ra_of_asc_node": 64.4053,
        "meta_arg_of_pericenter": 91.8102,
        "meta_mean_anomaly": 268.3219,
        "meta_ephemeris_type": 0,
        "meta_classification_type": "U",
        "meta_norad_cat_id": 39084,
        "meta_element_set_no": 999,
        "meta_rev_at_epoch": 67216,
        "meta_bstar": 9.8100197e-05,
        "meta_mean_motion_dot": 3.97e-06,
        "meta_mean_motion_ddot": 0,
        "tle_line1": "1 39084U 13008A   25356.47611454  .00000397  00000+0  98100-4 0  9999",
        "tle_line2": "2 39084  98.2059  64.4053 0001067  91.8102 268.3219 14.57112059672164"
      },
      "geometry": {
        "type": "Point",
        "coordinates": [
          74.1766007729718,
          -48.25838663169917
        ]
      }
    },
    {
      "type": "Feature",
      "properties": {
        "norad_id": 39086,
        "name": "SARAL",
        "group": "resource",
        "lat": 55.57956103271096,
        "lon": 13.427181575528191,
        "alt_km": 775.4423356477737,
        "timestamp": "2025-12-22T22:44:20.607693+00:00",
        "meta_object_name": "SARAL",
        "meta_object_id": "2013-009A",
        "meta_epoch": "2025-12-22T13:47:06.229824",
        "meta_mean_motion": 14.32760302,
        "meta_eccentricity": 0.00029633,
        "meta_inclination": 98.5503,
        "meta_ra_of_asc_node": 180.3764,
        "meta_arg_of_pericenter": 90.187,
        "meta_mean_anomaly": 269.9653,
        "meta_ephemeris_type": 0,
        "meta_classification_type": "U",
        "meta_norad_cat_id": 39086,
        "meta_element_set_no": 999,
        "meta_rev_at_epoch": 67031,
        "meta_bstar": 5.6655884e-05,
        "meta_mean_motion_dot": 1.11e-06,
        "meta_mean_motion_ddot": 0,
        "tle_line1": "1 39086U 13009A   25356.57437766  .00000111  00000+0  56656-4 0  9999",
        "tle_line2": "2 39086  98.5503 180.3764 0002963  90.1870 269.9653 14.32760302670317"
      },
      "geometry": {
        "type": "Point",
        "coordinates": [
          13.427181575528191,
          55.57956103271096
        ]
      }
    },
    {
      "type": "Feature",
      "properties": {
        "norad_id": 39150,
        "name": "GAOFEN-1",
        "group": "resource",
        "lat": 65.07923062263986,
        "lon": 49.9642038041843,
        "alt_km": 624.9743244519359,
        "timestamp": "2025-12-22T22:44:20.607704+00:00",
        "meta_object_name": "GAOFEN-1",
        "meta_object_id": "2013-018A",
        "meta_epoch": "2025-12-22T14:18:28.033920",
        "meta_mean_motion": 14.76496516,
        "meta_eccentricity": 0.00184537,
        "meta_inclination": 97.9319,
        "meta_ra_of_asc_node": 67.0813,
        "meta_arg_of_pericenter": 113.0297,
        "meta_mean_anomaly": 247.2862,
        "meta_ephemeris_type": 0,
        "meta_classification_type": "U",
        "meta_norad_cat_id": 39150,
        "meta_element_set_no": 999,
        "meta_rev_at_epoch": 68218,
        "meta_bstar": 0.00012442828,
        "meta_mean_motion_dot": 8.18e-06,
        "meta_mean_motion_ddot": 0,
        "tle_line1": "1 39150U 13018A   25356.59615780  .00000818  00000+0  12443-3 0  9996",
        "tle_line2": "2 39150  97.9319  67.0813 0018453 113.0297 247.2862 14.76496516682182"
      },
      "geometry": {
        "type": "Point",
        "coordinates": [
          49.9642038041843,
          65.07923062263986
        ]
      }
    },
    {
      "type": "Feature",
      "properties": {
        "norad_id": 39160,
        "name": "VNREDSAT 1",
        "group": "resource",
        "lat": 62.50110651570015,
        "lon": 36.32026631319777,
        "alt_km": 670.3724075448927,
        "timestamp": "2025-12-22T22:44:20.607714+00:00",
        "meta_object_name": "VNREDSAT 1",
        "meta_object_id": "2013-021B",
        "meta_epoch": "2025-12-22T14:15:12.546144",
        "meta_mean_motion": 14.64936629,
        "meta_eccentricity": 0.00012104,
        "meta_inclination": 97.9361,
        "meta_ra_of_asc_node": 51.5234,
        "meta_arg_of_pericenter": 81.7234,
        "meta_mean_anomaly": 278.4107,
        "meta_ephemeris_type": 0,
        "meta_classification_type": "U",
        "meta_norad_cat_id": 39160,
        "meta_element_set_no": 999,
        "meta_rev_at_epoch": 67443,
        "meta_bstar": 0.0001347347,
        "meta_mean_motion_dot": 6.75e-06,
        "meta_mean_motion_ddot": 0,
        "tle_line1": "1 39160U 13021B   25356.59389521  .00000675  00000+0  13473-3 0  9997",
        "tle_line2": "2 39160  97.9361  51.5234 0001210  81.7234 278.4107 14.64936629674438"
      },
      "geometry": {
        "type": "Point",
        "coordinates": [
          36.32026631319777,
          62.50110651570015
        ]
      }
    }
  ]
}